H1 CPF 01  gfz 2021 07 09 12  6902 tandemx   
H2 1003001  6202 36605    2021 07 09 12 59 42 2021 07 14 00 00 42   120 1 1  0 0 0
H9
10 0 59406  39582.000000  0    2011415.772  -5543121.667   3552578.368
10 0 59406  39702.000000  0    1970795.456  -5996675.980   2750937.596
10 0 59406  39822.000000  0    1888704.467  -6344307.239   1900853.462
10 0 59406  39942.000000  0    1768490.863  -6579241.327   1017294.206
10 0 59406  40062.000000  0    1614276.021  -6696759.433    115821.363
10 0 59406  40182.000000  0    1430844.885  -6694297.730   -787691.911
10 0 59406  40302.000000  0    1223521.466  -6571502.572  -1677352.135
10 0 59406  40422.000000  0     998032.997  -6330237.704  -2537533.403
10 0 59406  40542.000000  0     760367.805  -5974548.252  -3353157.751
10 0 59406  40662.000000  0     516631.722  -5510582.130  -4109962.519
10 0 59406  40782.000000  0     272903.589  -4946471.215  -4794749.466
10 0 59406  40902.000000  0      35094.700  -4292176.104  -5395610.051
10 0 59406  41022.000000  0    -191184.329  -3559299.428  -5902124.946
10 0 59406  41142.000000  0    -400746.639  -2760871.271  -6305534.548
10 0 59406  41262.000000  0    -588939.770  -1911112.355  -6598879.032
10 0 59406  41382.000000  0    -751742.180  -1025179.627  -6777107.052
10 0 59406  41502.000000  0    -885844.034   -118898.580  -6837154.096
10 0 59406  41622.000000  0    -988710.931    791514.679  -6777988.626
10 0 59406  41742.000000  0   -1058630.208   1689735.832  -6600627.256
10 0 59406  41862.000000  0   -1094739.023   2559617.516  -6308119.026
10 0 59406  41982.000000  0   -1097033.709   3385473.140  -5905500.037
10 0 59406  42102.000000  0   -1066360.734   4152357.390  -5399716.266
10 0 59406  42222.000000  0   -1004388.617   4846336.834  -4799514.862
10 0 59406  42342.000000  0    -913561.936   5454748.006  -4115304.446
10 0 59406  42462.000000  0    -797037.592   5966436.514  -3358983.925
10 0 59406  42582.000000  0    -658604.136   6371971.447  -2543743.093
10 0 59406  42702.000000  0    -502585.751   6663831.586  -1683837.436
10 0 59406  42822.000000  0    -333733.279   6836557.244   -794339.332
10 0 59406  42942.000000  0    -157104.004   6886863.733    109128.757
10 0 59406  43062.000000  0      22066.837   6813712.972   1010674.841
10 0 59406  43182.000000  0     198498.888   6618339.943   1894426.323
10 0 59406  43302.000000  0     366999.897   6304231.198   2744819.094
10 0 59406  43422.000000  0     522596.268   5877058.459   3546878.566
10 0 59406  43542.000000  0     660658.571   5344570.662   4286488.599
10 0 59406  43662.000000  0     777018.898   4716446.959   4950646.953
10 0 59406  43782.000000  0     868074.621   4004105.031   5527694.779
10 0 59406  43902.000000  0     930879.975   3220485.245   6007515.837
10 0 59406  44022.000000  0     963221.406   2379807.864   6381710.033
10 0 59406  44142.000000  0     963674.631   1497308.827   6643734.763
10 0 59406  44262.000000  0     931643.731    588959.426   6789013.397
10 0 59406  44382.000000  0     867381.307   -328823.536   6815009.224
10 0 59406  44502.000000  0     771989.113  -1239473.214   6721268.119
10 0 59406  44622.000000  0     647399.056  -2126571.913   6509426.590
10 0 59406  44742.000000  0     496334.757  -2974147.176   6183185.543
10 0 59406  44862.000000  0     322254.318  -3766961.654   5748248.275
10 0 59406  44982.000000  0     129276.006  -4490787.862   5212224.215
10 0 59406  45102.000000  0     -77911.636  -5132666.847   4584503.172
10 0 59406  45222.000000  0    -294154.714  -5681149.023   3876098.307
10 0 59406  45342.000000  0    -513953.007  -6126509.048   3099455.739
10 0 59406  45462.000000  0    -731589.402  -6460928.376   2268236.381
10 0 59406  45582.000000  0    -941265.559  -6678641.161   1397073.291
10 0 59406  45702.000000  0   -1137242.428  -6776042.877    501310.103
10 0 59406  45822.000000  0   -1313982.236  -6751754.787   -403278.479
10 0 59406  45942.000000  0   -1466285.708  -6606641.785  -1300773.794
10 0 59406  46062.000000  0   -1589422.275  -6343785.494  -2175401.679
10 0 59406  46182.000000  0   -1679250.615  -5968413.816  -3011816.623
10 0 59406  46302.000000  0   -1732326.500  -5487788.186  -3795376.270
10 0 59406  46422.000000  0   -1745994.767  -4911051.195  -4512399.353
10 0 59406  46542.000000  0   -1718463.276  -4249040.410  -5150401.287
10 0 59406  46662.000000  0   -1648858.042  -3514074.483  -5698304.647
10 0 59406  46782.000000  0   -1537258.428  -2719716.220  -6146622.622
10 0 59406  46902.000000  0   -1384711.758  -1880516.856  -6487612.887
10 0 59406  47022.000000  0   -1193227.640  -1011747.632  -6715399.361
10 0 59406  47142.000000  0    -965752.926   -129124.180  -6826062.934
10 0 59406  47262.000000  0    -706126.910    751472.708  -6817701.029
10 0 59406  47382.000000  0    -419017.132   1614275.338  -6690456.271
10 0 59406  47502.000000  0    -109838.198   2443903.865  -6446514.246
10 0 59406  47622.000000  0     215346.391   3225634.425  -6090071.781
10 0 59406  47742.000000  0     549939.713   3945658.268  -5627273.122
10 0 59406  47862.000000  0     886940.441   4591325.131  -5066113.492
10 0 59406  47982.000000  0    1219083.827   5151369.231  -4416313.148
10 0 59406  48102.000000  0    1538993.243   5616113.865  -3689159.620
10 0 59406  48222.000000  0    1839338.642   5977648.205  -2897320.156
10 0 59406  48342.000000  0    2112998.627   6229973.712  -2054627.377
10 0 59406  48462.000000  0    2353222.837   6369116.140  -1175839.692
10 0 59406  48582.000000  0    2553790.261   6393198.278   -276380.265
10 0 59406  48702.000000  0    2709159.224   6302470.634    627939.231
10 0 59406  48822.000000  0    2814605.024   6099299.484   1521203.611
10 0 59406  48942.000000  0    2866341.670   5788112.920   2387682.378
10 0 59406  49062.000000  0    2861624.935   5375305.659   3212114.932
10 0 59406  49182.000000  0    2798834.172   4869104.643   3979986.726
10 0 59406  49302.000000  0    2677530.567   4279399.862   4677790.929
10 0 59406  49422.000000  0    2498487.938   3617541.239   5293269.929
10 0 59406  49542.000000  0    2263698.236   2896110.797   5815627.209
10 0 59406  49662.000000  0    1976353.965   2128677.605   6235712.147
10 0 59406  49782.000000  0    1640805.002   1329537.369   6546176.332
10 0 59406  49902.000000  0    1262490.960    513441.673   6741595.552
10 0 59406  50022.000000  0     847851.670   -304674.631   6818557.631
10 0 59406  50142.000000  0     404217.280  -1109965.611   6775719.765
10 0 59406  50262.000000  0     -60321.643  -1887944.132   6613830.964
10 0 59406  50382.000000  0    -537061.836  -2624742.419   6335719.380
10 0 59406  50502.000000  0   -1016849.703  -3307360.099   5946244.558
10 0 59406  50622.000000  0   -1490254.207  -3923894.071   5452216.168
10 0 59406  50742.000000  0   -1947750.540  -4463749.152   4862282.970
10 0 59406  50862.000000  0   -2379912.535  -4917827.114   4186789.158
10 0 59406  50982.000000  0   -2777608.704  -5278688.957   3437597.398
10 0 59406  51102.000000  0   -3132195.769  -5540684.489   2627880.667
10 0 59406  51222.000000  0   -3435705.543  -5700046.344   1771889.281
10 0 59406  51342.000000  0   -3681021.765  -5754947.849    884696.507
10 0 59406  51462.000000  0   -3862042.313  -5705522.047    -18073.157
10 0 59406  51582.000000  0   -3973822.475  -5553841.399   -920527.098
10 0 59406  51702.000000  0   -4012695.306  -5303857.983  -1806793.843
10 0 59406  51822.000000  0   -3976365.693  -4961305.003  -2661310.915
10 0 59406  51942.000000  0   -3863975.854  -4533563.035  -3469104.435
10 0 59406  52062.000000  0   -3676140.743  -4029495.443  -4216054.069
10 0 59406  52182.000000  0   -3414953.736  -3459258.353  -4889138.320
10 0 59406  52302.000000  0   -3083963.114  -2834089.763  -5476656.752
10 0 59406  52422.000000  0   -2688120.370  -2166082.846  -5968424.973
10 0 59406  52542.000000  0   -2233702.193  -1467949.351  -6355941.235
10 0 59406  52662.000000  0   -1728206.848   -752776.749  -6632522.553
10 0 59406  52782.000000  0   -1180228.252    -33784.658  -6793407.818
10 0 59406  52902.000000  0    -599311.280    675914.357  -6835829.704
10 0 59406  53022.000000  0       4211.404   1363547.640  -6759057.397
10 0 59406  53142.000000  0     619397.847   2016905.993  -6564407.643
10 0 59406  53262.000000  0    1234890.041   2624555.775  -6255227.084
10 0 59406  53382.000000  0    1839119.729   3176036.699  -5836840.875
10 0 59406  53502.000000  0    2420521.644   3662041.775  -5316469.825
10 0 59406  53622.000000  0    2967752.276   4074576.008  -4703116.902
10 0 59406  53742.000000  0    3469910.562   4407093.388  -4007423.293
10 0 59406  53862.000000  0    3916756.655   4654607.999  -3241493.750
10 0 59406  53982.000000  0    4298924.341   4813775.975  -2418692.900
10 0 59406  54102.000000  0    4608120.416   4882945.325  -1553415.217
10 0 59406  54222.000000  0    4837307.922   4862174.015   -660833.829
10 0 59406  54342.000000  0    4980867.472   4753212.449    243370.320
10 0 59406  54462.000000  0    5034729.942   4559451.503   1143290.192
10 0 59406  54582.000000  0    4996480.443   4285838.814   2023079.438
10 0 59406  54702.000000  0    4865430.680   3938763.198   2867240.783
10 0 59406  54822.000000  0    4642654.294   3525908.952   3660908.309
10 0 59406  54942.000000  0    4330985.361   3056085.630   4390115.397
10 0 59406  55062.000000  0    3934982.405   2539037.922   5042043.094
10 0 59406  55182.000000  0    3460857.599   1985240.520   5605247.187
10 0 59406  55302.000000  0    2916371.488   1405682.493   6069855.918
10 0 59406  55422.000000  0    2310700.399    811646.102   6427737.410
10 0 59406  55542.000000  0    1654277.329    214485.977   6672634.649
10 0 59406  55662.000000  0     958609.627   -374586.510   6800269.989
10 0 59406  55782.000000  0     236075.287   -944713.727   6808416.612
10 0 59406  55902.000000  0    -500297.995  -1485591.828   6696934.125
10 0 59406  56022.000000  0   -1237067.600  -1987656.803   6467770.133
99
